GPS BIIR-2  (PRN 13)    
1 24876U 97035A   25342.74402807  .00000018  00000+0  00000+0 0  9996
2 24876  55.8934 106.0252 0096734  57.0084 303.8909  2.00563531208133
GPS BIIR-4  (PRN 20)    
1 26360U 00025A   25343.17706023 -.00000092  00000+0  00000+0 0  9997
2 26360  55.0431  26.9820 0038847 241.6461 163.8162  2.00567914187465
GPS BIIR-5  (PRN 22)    
1 26407U 00040A   25343.07753514  .00000008  00000+0  00000+0 0  9998
2 26407  54.8916 222.7147 0126211 301.7415 231.4474  2.00567849186138
GPS BIIR-8  (PRN 16)    
1 27663U 03005A   25343.29282618  .00000006  00000+0  00000+0 0  9991
2 27663  54.9241 222.5154 0147316  51.7525  52.7373  2.00571042167506
GPS BIIR-11 (PRN 19)    
1 28190U 04009A   25343.11229093 -.00000053  00000+0  00000+0 0  9994
2 28190  54.9890 283.3651 0108304 167.5856 325.4150  2.00560834159136
GPS BIIR-13 (PRN 02)    
1 28474U 04045A   25342.84357845 -.00000083  00000+0  00000+0 0  9998
2 28474  55.2426 332.5625 0170688 309.0781  49.8960  2.00569220154614
GPS BIIRM-1 (PRN 17)    
1 28874U 05038A   25343.07842363 -.00000050  00000+0  00000+0 0  9999
2 28874  55.0352 280.8483 0131749 293.4065 193.8993  2.00578550148027
GPS BIIRM-2 (PRN 31)    
1 29486U 06042A   25343.28154554  .00000065  00000+0  00000+0 0  9991
2 29486  54.6937 158.8779 0107363  51.8785 125.5257  2.00554233140583
GPS BIIRM-3 (PRN 12)    
1 29601U 06052A   25342.95784343  .00000010  00000+0  00000+0 0  9999
2 29601  54.9712 221.5484 0087721  87.3994 273.6864  2.00573222139595
GPS BIIRM-4 (PRN 15)    
1 32260U 07047A   25343.26348917 -.00000015  00000+0  00000+0 0  9993
2 32260  53.9530  87.9021 0164269  85.2089 276.6577  2.00564591133006
GPS BIIRM-5 (PRN 29)    
1 32384U 07062A   25343.18564589 -.00000052  00000+0  00000+0 0  9994
2 32384  55.1854 281.7885 0032221 162.5723 272.1574  2.00577042131702
GPS BIIRM-6 (PRN 07)    
1 32711U 08012A   25342.68522207  .00000060  00000+0  00000+0 0  9997
2 32711  54.4766 157.5348 0202275 244.9025 112.9918  2.00565395129935
GPS BIIRM-8 (PRN 05)    
1 35752U 09043A   25343.15319199 -.00000085  00000+0  00000+0 0  9995
2 35752  56.0885  34.9246 0051902  81.9687 273.8421  2.00565819119543
GPS BIIF-1  (PRN 25)    
1 36585U 10022A   25343.23815981  .00000014  00000+0  00000+0 0  9999
2 36585  54.3007 216.2152 0125964  65.0346 110.6478  2.00552985113781
GPS BIIF-3  (PRN 24)    
1 38833U 12053A   25342.86258067  .00000059  00000+0  00000+0 0  9996
2 38833  53.5568 151.3974 0175664  63.9455 297.8485  2.00564932 95626
GPS BIIF-4  (PRN 27)    
1 39166U 13023A   25342.22798469 -.00000041  00000+0  00000+0 0  9991
2 39166  54.6560 276.7517 0137623  48.5653 312.6225  2.00565078 92051
GPS BIIF-5  (PRN 30)    
1 39533U 14008A   25342.72076059  .00000059  00000+0  00000+0 0  9990
2 39533  53.6309 157.0886 0079112 226.4438 132.9028  2.00574163 85865
GPS BIIF-6  (PRN 06)    
1 39741U 14026A   25343.00373516 -.00000084  00000+0  00000+0 0  9990
2 39741  56.5851 338.9217 0039085 318.4622  41.2516  2.00561537 84729
GPS BIIF-7  (PRN 09)    
1 40105U 14045A   25342.59294871  .00000000  00000+0  00000+0 0  9993
2 40105  55.2267  96.0644 0032772 119.7768 240.5333  2.00572212 82256
GPS BIIF-8  (PRN 03)    
1 40294U 14068A   25342.47061174 -.00000078  00000+0  00000+0 0  9998
2 40294  56.8546  38.3112 0060794  69.2801 291.4270  2.00564487 81386
GPS BIIF-9  (PRN 26)    
1 40534U 15013A   25343.09919151  .00000018  00000+0  00000+0 0  9995
2 40534  53.1983 212.0410 0106899  38.3936 322.4441  2.00562736 78019
GPS BIIF-10 (PRN 08)    
1 40730U 15033A   25343.26053109 -.00000049  00000+0  00000+0 0  9991
2 40730  54.1337 274.9160 0110737  26.7244 333.8599  2.00565711 76181
GPS BIIF-11 (PRN 10)    
1 41019U 15062A   25342.32275443 -.00000077  00000+0  00000+0 0  9998
2 41019  56.8290  38.1732 0110692 229.8078 129.2726  2.00566979 74000
GPS BIIF-12 (PRN 32)    
1 41328U 16007A   25342.40515880  .00000001  00000+0  00000+0 0  9998
2 41328  55.4038  97.0291 0091947 243.4665 115.5721  2.00560880 72014
GPS BIII-1  (PRN 04)    
1 43873U 18109A   25342.57051009  .00000006  00000+0  00000+0 0  9991
2 43873  55.5654  99.7112 0037210 194.8122 178.3596  2.00553358 51259
GPS BIII-2  (PRN 18)    
1 44506U 19056A   25343.24768935 -.00000086  00000+0  00000+0 0  9994
2 44506  55.7225 338.6907 0057774 198.4890 200.4387  2.00566026 46261
GPS BIII-3  (PRN 23)    
1 45854U 20041A   25343.29119208 -.00000084  00000+0  00000+0 0  9993
2 45854  56.5448  36.3195 0060407 203.3087 171.1638  2.00561820 40237
GPS BIII-4  (PRN 14)    
1 46826U 20078A   25342.60003840  .00000016  00000+0  00000+0 0  9995
2 46826  54.0161 218.5090 0064574 203.3540   2.9420  2.00566768 37684
GPS BIII-5  (PRN 11)    
1 48859U 21054A   25342.17676416 -.00000086  00000+0  00000+0 0  9993
2 48859  55.2581 340.1367 0024681 233.3965 212.8622  2.00553628 32928
GPS BIII-6  (PRN 28)    
1 55268U 23009A   25342.24475682  .00000059  00000+0  00000+0 0  9996
2 55268  55.1046 156.0217 0003615 356.7859 180.9144  2.00555991 21410
GPS BIII-7  (PRN 01)    
1 62339U 24242A   25341.88517015 -.00000087  00000+0  00000+0 0  9991
2 62339  54.9247 341.9365 0011934 343.8064  11.4848  2.00567469  7410
GPS BIII-8  (PRN 21)    
1 64202U 25116A   25343.12182044 -.00000084  00000+0  00000+0 0  9999
2 64202  55.1032  38.7868 0005263 307.5072  50.3343  2.00558368  4056
